NORAD_CAT_ID,OBJECT_NAME,OBJECT_TYPE,EPOCH,MEAN_MOTION,ECCENTRICITY,INCLINATION,RA_OF_ASC_NODE,ARG_OF_PERICENTER,MEAN_ANOMALY,BSTAR,MEAN_MOTION_DOT,MEAN_MOTION_DDOT,TLE_LINE0,TLE_LINE1,TLE_LINE2,SEMIMAJOR_AXIS,PERIOD,APOGEE,PERIGEE,DECAYED
52127.0,STARLINK-3715,PAYLOAD,2022-12-15 08:30:12,15.08843084,0.000287,53.2186,327.8491,30.1493,329.9663,0.00011018,1.466e-05,0.0,0 STARLINK-3715,1 52127U 22029AR  22349.35431640  .00001466  00000-0  11018-3 0  9999,2 52127  53.2186 327.8491 0002870  30.1493 329.9663 15.08843084 42730,6917.871,95.437,541.721,537.751,0.0
52127.0,STARLINK-3715,PAYLOAD,2022-12-15 10:05:35,15.08846524,0.0002927,53.2183,327.5525,29.5016,330.6141,0.00013875,1.921e-05,0.0,0 STARLINK-3715,1 52127U 22029AR  22349.42055354  .00001921  00000-0  13875-3 0  9990,2 52127  53.2183 327.5525 0002927  29.5016 330.6141 15.08846524 42741,6917.86,95.437,541.75,537.701,0.0
52127.0,STARLINK-3715,PAYLOAD,2022-12-16 08:20:59,15.0884385,0.0002788999999999,53.221,323.3875,34.0415,326.0755,2.8582e-05,1.66e-06,0.0,0 STARLINK-3715,1 52127U 22029AR  22350.34791528  .00000166  00000-0  28582-4 0  9995,2 52127  53.2210 323.3875 0002789  34.0415 326.0755 15.08843850 42888,6917.869000000002,95.437,541.663,537.804,0.0
52127.0,STARLINK-3715,PAYLOAD,2022-12-17 01:50:15,15.0883074,0.0002709,53.2193,320.1163,27.8528,332.2608,-2.14e-05,-6.29e-06,0.0,0 STARLINK-3715,1 52127U 22029AR  22351.07656627 -.00000629  00000-0 -21400-4 0  9994,2 52127  53.2193 320.1163 0002709  27.8528 332.2608 15.08830740 42992,6917.909000000002,95.438,541.648,537.9,0.0
52127.0,STARLINK-3715,PAYLOAD,2022-12-17 06:36:24,15.08835587,0.0002846,53.2202,319.2263,24.8898,335.2231,-4.6511e-05,-1.029e-05,0.0,0 STARLINK-3715,1 52127U 22029AR  22351.27528517 -.00001029  00000-0 -46511-4 0  9997,2 52127  53.2202 319.2263 0002846  24.8898 335.2231 15.08835587 43026,6917.894,95.438,541.7280000000002,537.79,0.0
52127.0,STARLINK-3715,PAYLOAD,2022-12-17 14:33:19,15.08845034,0.0002775,53.2201,317.7388,24.9319,335.1807,-4.7723e-06,-3.65e-06,0.0,0 STARLINK-3715,1 52127U 22029AR  22351.60647778 -.00000365  00000-0 -47723-5 0  9994,2 52127  53.2201 317.7388 0002775  24.9319 335.1807 15.08845034 43077,6917.865,95.437,541.65,537.81,0.0
52127.0,STARLINK-3715,PAYLOAD,2022-12-18 08:02:34,15.088383800000004,0.0002764,53.2197,314.4683,24.8358,335.2767,9.6556e-05,1.249e-05,0.0,0 STARLINK-3715,1 52127U 22029AR  22352.33512091  .00001249  00000-0  96556-4 0  9991,2 52127  53.2197 314.4683 0002764  24.8358 335.2767 15.08838380 43187,6917.885,95.438,541.6619999999998,537.8380000000002,0.0
52127.0,STARLINK-3715,PAYLOAD,2022-12-18 14:24:07,15.08831076,0.0002785,53.2191,313.2784,24.3416,335.7707,6.0657e-05,6.77e-06,0.0,0 STARLINK-3715,1 52127U 22029AR  22352.60008791  .00000677  00000-0  60657-4 0  9995,2 52127  53.2191 313.2784 0002785  24.3416 335.7707 15.08831076 43222,6917.908,95.438,541.6990000000002,537.846,0.0
52127.0,STARLINK-3715,PAYLOAD,2022-12-19 06:17:58,15.08833409,0.0002811,53.2188,310.3027,21.406,338.7049,0.00013731,1.897e-05,0.0,0 STARLINK-3715,1 52127U 22029AR  22353.26248772  .00001897  00000-0  13731-3 0  9998,2 52127  53.2188 310.3027 0002811  21.4060 338.7049 15.08833409 43324,6917.901,95.438,541.71,537.821,0.0
52127.0,STARLINK-3715,PAYLOAD,2022-12-19 14:14:54,15.08844636,0.0002741,53.219,308.8181,24.6335,335.4788,0.00016074,2.271e-05,0.0,0 STARLINK-3715,1 52127U 22029AR  22353.59368098  .00002271  00000-0  16074-3 0  9998,2 52127  53.2190 308.8181 0002741  24.6335 335.4788 15.08844636 43375,6917.866,95.437,541.627,537.835,0.0
52127.0,STARLINK-3715,PAYLOAD,2022-12-19 20:36:26,15.08851888,0.0002785,53.2186,307.6281,22.4759,337.6355,0.00018391,2.641e-05,0.0,0 STARLINK-3715,1 52127U 22029AR  22353.85863442  .00002641  00000-0  18391-3 0  9995,2 52127  53.2186 307.6281 0002785  22.4759 337.6355 15.08851888 43418,6917.844,95.437,541.636,537.7819999999998,0.0
52127.0,STARLINK-3715,PAYLOAD,2022-12-20 01:22:35,15.08855332,0.0002765,53.2178,306.736,23.3077,336.8040000000001,0.00025479,3.771e-05,0.0,0 STARLINK-3715,1 52127U 22029AR  22354.05735296  .00003771  00000-0  25479-3 0  9993,2 52127  53.2178 306.7360 0002765  23.3077 336.8040 15.08855332 43441,6917.834,95.437,541.611,537.786,0.0
52127.0,STARLINK-3715,PAYLOAD,2022-12-20 07:44:07,15.08857889,0.0002706,53.2178,305.5468,25.8865,334.2262,0.00036612,5.546e-05,0.0,0 STARLINK-3715,1 52127U 22029AR  22354.32231224  .00005546  00000-0  36612-3 0  9998,2 52127  53.2178 305.5468 0002706  25.8865 334.2262 15.08857889 43485,6917.826,95.436,541.563,537.819,0.0
52127.0,STARLINK-3715,PAYLOAD,2022-12-20 14:05:40,15.08854446,0.0002822,53.2181,304.3569,26.7532,333.3605,0.00027158,4.038e-05,0.0,0 STARLINK-3715,1 52127U 22029AR  22354.58727204  .00004038  00000-0  27158-3 0  9994,2 52127  53.2181 304.3569 0002822  26.7532 333.3605 15.08854446 43520,6917.8359999999975,95.437,541.653,537.749,0.0
52127.0,STARLINK-3715,PAYLOAD,2022-12-21 02:48:46,15.08833595,0.0002693,53.2187,301.9777,26.1534,333.9594,-6.8787e-05,-1.383e-05,0.0,0 STARLINK-3715,1 52127U 22029AR  22355.11719981 -.00001383  00000-0 -68787-4 0  9993,2 52127  53.2187 301.9777 0002693  26.1534 333.9594 15.08833595 43606,6917.9,95.438,541.628,537.9019999999998,0.0
52127.0,STARLINK-3715,PAYLOAD,2022-12-21 09:10:19,15.08825003,0.0002671,53.2188,300.7898,24.912,335.2001,-1.3255e-05,-4.99e-06,0.0,0 STARLINK-3715,1 52127U 22029AR  22355.38217142 -.00000499  00000-0 -13255-4 0  9991,2 52127  53.2188 300.7898 0002671  24.9120 335.2001 15.08825003 43648,6917.926,95.439,541.639,537.943,0.0
52127.0,STARLINK-3715,PAYLOAD,2022-12-22 04:14:56,15.08844852,0.0002786,53.2189,297.2218,24.7332,335.3793,-1.5777e-05,-5.400000000000002e-06,0.0,0 STARLINK-3715,1 52127U 22029AR  22356.17704093 -.00000540  00000-0 -15777-4 0  9993,2 52127  53.2189 297.2218 0002786  24.7332 335.3793 15.08844852 43760,6917.866,95.437,541.658,537.803,0.0
52127.0,STARLINK-3715,PAYLOAD,2022-12-22 07:25:42,15.08848914,0.0002768,53.219,296.627,23.5074,336.6044,5.9043e-06,-1.95e-06,0.0,0 STARLINK-3715,1 52127U 22029AR  22356.30951742 -.00000195  00000-0  59043-5 0  9993,2 52127  53.2190 296.6270 0002768  23.5074 336.6044 15.08848914 43781,6917.853,95.437,541.633,537.803,0.0
52127.0,STARLINK-3715,PAYLOAD,2022-12-22 13:47:14,15.08849273,0.0002782,53.2189,295.4376,25.6887,334.4242,4.8163e-05,4.78e-06,0.0,0 STARLINK-3715,1 52127U 22029AR  22356.57447546  .00000478  00000-0  48163-4 0  9997,2 52127  53.2189 295.4376 0002782  25.6887 334.4242 15.08849273 43824,6917.852,95.437,541.6419999999998,537.7919999999998,0.0
52127.0,STARLINK-3715,PAYLOAD,2022-12-23 02:30:21,15.08828462,0.0002708,53.2189,293.0589,24.242,335.8699,5.9695e-05,6.61e-06,0.0,0 STARLINK-3715,1 52127U 22029AR  22357.10441119  .00000661  00000-0  59695-4 0  9993,2 52127  53.2189 293.0589 0002708  24.2420 335.8699 15.08828462 43907,6917.916,95.438,541.654,537.9069999999998,0.0
52127.0,STARLINK-3715,PAYLOAD,2022-12-23 19:59:35,15.08830796,0.000281,53.2191,289.7891,24.8115,335.3012,0.00016364,2.316e-05,0.0,0 STARLINK-3715,1 52127U 22029AR  22357.83305244  .00002316  00000-0  16364-3 0  9995,2 52127  53.2191 289.7891 0002810  24.8115 335.3012 15.08830796 44019,6917.909000000002,95.438,541.717,537.83,0.0
52127.0,STARLINK-3715,PAYLOAD,2022-12-24 02:21:08,15.08837043,0.0002817,53.2188,288.5983,25.4323,334.6807,6.0382e-05,6.73e-06,0.0,0 STARLINK-3715,1 52127U 22029AR  22358.09801240  .00000673  00000-0  60382-4 0  9995,2 52127  53.2188 288.5983 0002817  25.4323 334.6807 15.08837043 44059,6917.889,95.438,541.703,537.806,0.0
52127.0,STARLINK-3715,PAYLOAD,2022-12-24 19:50:21,15.08870326,0.0003097,53.2187,285.3277,24.7746,335.3395,-0.00022571,-3.882e-05,0.0,0 STARLINK-3715,1 52127U 22029AR  22358.82663338 -.00003882  00000-0 -22571-3 0  9994,2 52127  53.2187 285.3277 0003097  24.7746 335.3395 15.08870326 44164,6917.788000000001,95.436,541.795,537.51,0.0
52127.0,STARLINK-3715,PAYLOAD,2022-12-25 02:11:54,15.08846352,0.0002839,53.2192,284.1373,28.7856,331.3292,0.00023325,3.426e-05,0.0,0 STARLINK-3715,1 52127U 22029AR  22359.09160273  .00003426  00000-0  23325-3 0  9994,2 52127  53.2192 284.1373 0002839  28.7856 331.3292 15.08846352 44202,6917.861,95.437,541.69,537.762,0.0
52127.0,STARLINK-3715,PAYLOAD,2022-12-25 18:05:46,15.08836199,0.0002921999999999,53.2192,281.1626,27.4538,332.6608,7.3119e-05,8.75e-06,0.0,0 STARLINK-3715,1 52127U 22029AR  22359.75401349  .00000875  00000-0  73119-4 0  9991,2 52127  53.2192 281.1626 0002922  27.4538 332.6608 15.08836199 44300,6917.892,95.438,541.778,537.736,0.0
52127.0,STARLINK-3715,PAYLOAD,2022-12-26 05:13:28,15.08841857,0.0002942,53.2179,279.0827,30.0554,330.0606,6.336800000000001e-05,7.200000000000001e-06,0.0,0 STARLINK-3715,1 52127U 22029AR  22360.21768850  .00000720  00000-0  63368-4 0  9991,2 52127  53.2179 279.0827 0002942  30.0554 330.0606 15.08841857 44378,6917.875,95.437,541.775,537.7040000000002,0.0
52127.0,STARLINK-3715,PAYLOAD,2022-12-27 05:04:14,15.08855498,0.0003152,53.2183,274.6227,27.8995,332.2165,0.00014191,1.972e-05,0.0,0 STARLINK-3715,1 52127U 22029AR  22361.21127971  .00001972  00000-0  14191-3 0  9994,2 52127  53.2183 274.6227 0003152  27.8995 332.2165 15.08855498 44522,6917.833000000001,95.437,541.879,537.518,0.0
52127.0,STARLINK-3715,PAYLOAD,2022-12-27 11:25:46,15.08856998,0.000311,53.218,273.4329,29.9612,330.1557,0.00031837,4.785e-05,0.0,0 STARLINK-3715,1 52127U 22029AR  22361.47623742  .00004785  00000-0  31837-3 0  9990,2 52127  53.2180 273.4329 0003110  29.9612 330.1557 15.08856998 44564,6917.828,95.436,541.845,537.5419999999998,0.0
52127.0,STARLINK-3715,PAYLOAD,2022-12-27 20:58:05,15.08852187,0.0003123,53.2179,271.6481,31.387,328.7308,0.00023453,3.447e-05,0.0,0 STARLINK-3715,1 52127U 22029AR  22361.87367882  .00003447  00000-0  23453-3 0  9993,2 52127  53.2179 271.6481 0003123  31.3870 328.7308 15.08852187 44628,6917.843000000003,95.437,541.869,537.548,0.0
